CCSDS_OMM_VERS = 2.0
CREATION_DATE  = 
ORIGINATOR     = 

OBJECT_NAME    = 2025-313P
OBJECT_ID      = 2025-313P
CENTER_NAME    = EARTH
REF_FRAME      = TEME
TIME_SYSTEM    = UTC
MEAN_ELEMENT_THEORY = SGP/SGP4

EPOCH          = 2026-01-13T11:24:49.934880
MEAN_MOTION    = 15.20395050
ECCENTRICITY   = .0015495
INCLINATION    = 97.4156
RA_OF_ASC_NODE = 90.6802
ARG_OF_PERICENTER = 180.9187
MEAN_ANOMALY   = 179.2023

EPHEMERIS_TYPE = 0
CLASSIFICATION_TYPE = U
NORAD_CAT_ID   = 67261
ELEMENT_SET_NO = 999
REV_AT_EPOCH   = 242
BSTAR          = .62604E-3
MEAN_MOTION_DOT = .13628E-3
MEAN_MOTION_DDOT = 0

CCSDS_OMM_VERS = 2.0
CREATION_DATE  = 
ORIGINATOR     = 

OBJECT_NAME    = 2025-313Q
OBJECT_ID      = 2025-313Q
CENTER_NAME    = EARTH
REF_FRAME      = TEME
TIME_SYSTEM    = UTC
MEAN_ELEMENT_THEORY = SGP/SGP4

EPOCH          = 2026-01-13T11:26:13.178688
MEAN_MOTION    = 15.20195393
ECCENTRICITY   = .0015549
INCLINATION    = 97.4123
RA_OF_ASC_NODE = 90.6607
ARG_OF_PERICENTER = 182.8898
MEAN_ANOMALY   = 177.2250

EPHEMERIS_TYPE = 0
CLASSIFICATION_TYPE = U
NORAD_CAT_ID   = 67262
ELEMENT_SET_NO = 999
REV_AT_EPOCH   = 242
BSTAR          = .43359E-3
MEAN_MOTION_DOT = .9357E-4
MEAN_MOTION_DDOT = 0

CCSDS_OMM_VERS = 2.0
CREATION_DATE  = 
ORIGINATOR     = 

OBJECT_NAME    = 2025-313R
OBJECT_ID      = 2025-313R
CENTER_NAME    = EARTH
REF_FRAME      = TEME
TIME_SYSTEM    = UTC
MEAN_ELEMENT_THEORY = SGP/SGP4

EPOCH          = 2026-01-13T11:26:31.667424
MEAN_MOTION    = 15.20144903
ECCENTRICITY   = .00154948
INCLINATION    = 97.4135
RA_OF_ASC_NODE = 90.6746
ARG_OF_PERICENTER = 181.7792
MEAN_ANOMALY   = 178.3390

EPHEMERIS_TYPE = 0
CLASSIFICATION_TYPE = U
NORAD_CAT_ID   = 67263
ELEMENT_SET_NO = 999
REV_AT_EPOCH   = 242
BSTAR          = .3271723E-3
MEAN_MOTION_DOT = .7031E-4
MEAN_MOTION_DDOT = 0

CCSDS_OMM_VERS = 2.0
CREATION_DATE  = 
ORIGINATOR     = 

OBJECT_NAME    = 2025-313S
OBJECT_ID      = 2025-313S
CENTER_NAME    = EARTH
REF_FRAME      = TEME
TIME_SYSTEM    = UTC
MEAN_ELEMENT_THEORY = SGP/SGP4

EPOCH          = 2026-01-13T13:02:13.503840
MEAN_MOTION    = 15.20029048
ECCENTRICITY   = .00154742
INCLINATION    = 97.4204
RA_OF_ASC_NODE = 90.7355
ARG_OF_PERICENTER = 186.6851
MEAN_ANOMALY   = 173.4180

EPHEMERIS_TYPE = 0
CLASSIFICATION_TYPE = U
NORAD_CAT_ID   = 67264
ELEMENT_SET_NO = 999
REV_AT_EPOCH   = 243
BSTAR          = .22839946E-3
MEAN_MOTION_DOT = .487E-4
MEAN_MOTION_DDOT = 0

CCSDS_OMM_VERS = 2.0
CREATION_DATE  = 
ORIGINATOR     = 

OBJECT_NAME    = SITRO-TD-4
OBJECT_ID      = 2025-313T
CENTER_NAME    = EARTH
REF_FRAME      = TEME
TIME_SYSTEM    = UTC
MEAN_ELEMENT_THEORY = SGP/SGP4

EPOCH          = 2026-01-13T11:26:03.733440
MEAN_MOTION    = 15.20172061
ECCENTRICITY   = .0015418
INCLINATION    = 97.4115
RA_OF_ASC_NODE = 90.6704
ARG_OF_PERICENTER = 182.6396
MEAN_ANOMALY   = 177.4760

EPHEMERIS_TYPE = 0
CLASSIFICATION_TYPE = U
NORAD_CAT_ID   = 67265
ELEMENT_SET_NO = 999
REV_AT_EPOCH   = 242
BSTAR          = .35125E-3
MEAN_MOTION_DOT = .756E-4
MEAN_MOTION_DDOT = 0

CCSDS_OMM_VERS = 2.0
CREATION_DATE  = 
ORIGINATOR     = 

OBJECT_NAME    = SITRO-AIS-65
OBJECT_ID      = 2025-313U
CENTER_NAME    = EARTH
REF_FRAME      = TEME
TIME_SYSTEM    = UTC
MEAN_ELEMENT_THEORY = SGP/SGP4

EPOCH          = 2026-01-13T11:25:59.785824
MEAN_MOTION    = 15.20183104
ECCENTRICITY   = .0015341
INCLINATION    = 97.4143
RA_OF_ASC_NODE = 90.6755
ARG_OF_PERICENTER = 181.3174
MEAN_ANOMALY   = 178.8024

EPHEMERIS_TYPE = 0
CLASSIFICATION_TYPE = U
NORAD_CAT_ID   = 67266
ELEMENT_SET_NO = 999
REV_AT_EPOCH   = 242
BSTAR          = .38422393E-3
MEAN_MOTION_DOT = .8279E-4
MEAN_MOTION_DDOT = 0

CCSDS_OMM_VERS = 2.0
CREATION_DATE  = 
ORIGINATOR     = 

OBJECT_NAME    = 2025-313V
OBJECT_ID      = 2025-313V
CENTER_NAME    = EARTH
REF_FRAME      = TEME
TIME_SYSTEM    = UTC
MEAN_ELEMENT_THEORY = SGP/SGP4

EPOCH          = 2026-01-13T13:00:15.333696
MEAN_MOTION    = 15.20238370
ECCENTRICITY   = .00145524
INCLINATION    = 97.4124
RA_OF_ASC_NODE = 90.7285
ARG_OF_PERICENTER = 186.7099
MEAN_ANOMALY   = 173.3944

EPHEMERIS_TYPE = 0
CLASSIFICATION_TYPE = U
NORAD_CAT_ID   = 67267
ELEMENT_SET_NO = 999
REV_AT_EPOCH   = 243
BSTAR          = .35517671E-3
MEAN_MOTION_DOT = .7658E-4
MEAN_MOTION_DDOT = 0

CCSDS_OMM_VERS = 2.0
CREATION_DATE  = 
ORIGINATOR     = 

OBJECT_NAME    = ZORKY-2M 7
OBJECT_ID      = 2025-313W
CENTER_NAME    = EARTH
REF_FRAME      = TEME
TIME_SYSTEM    = UTC
MEAN_ELEMENT_THEORY = SGP/SGP4

EPOCH          = 2026-01-13T13:01:03.698688
MEAN_MOTION    = 15.20136626
ECCENTRICITY   = .00155128
INCLINATION    = 97.4124
RA_OF_ASC_NODE = 90.7262
ARG_OF_PERICENTER = 181.8439
MEAN_ANOMALY   = 178.2742

EPHEMERIS_TYPE = 0
CLASSIFICATION_TYPE = U
NORAD_CAT_ID   = 67268
ELEMENT_SET_NO = 999
REV_AT_EPOCH   = 243
BSTAR          = .27150822E-3
MEAN_MOTION_DOT = .5821E-4
MEAN_MOTION_DDOT = 0

CCSDS_OMM_VERS = 2.0
CREATION_DATE  = 
ORIGINATOR     = 

OBJECT_NAME    = 2025-313X
OBJECT_ID      = 2025-313X
CENTER_NAME    = EARTH
REF_FRAME      = TEME
TIME_SYSTEM    = UTC
MEAN_ELEMENT_THEORY = SGP/SGP4

EPOCH          = 2026-01-13T11:25:03.980064
MEAN_MOTION    = 15.20309108
ECCENTRICITY   = .00153532
INCLINATION    = 97.4151
RA_OF_ASC_NODE = 90.6777
ARG_OF_PERICENTER = 180.5467
MEAN_ANOMALY   = 179.5754

EPHEMERIS_TYPE = 0
CLASSIFICATION_TYPE = U
NORAD_CAT_ID   = 67269
ELEMENT_SET_NO = 999
REV_AT_EPOCH   = 242
BSTAR          = .40500875E-3
MEAN_MOTION_DOT = .8764E-4
MEAN_MOTION_DDOT = 0

CCSDS_OMM_VERS = 2.0
CREATION_DATE  = 
ORIGINATOR     = 

OBJECT_NAME    = SITRO-TD-3
OBJECT_ID      = 2025-313Y
CENTER_NAME    = EARTH
REF_FRAME      = TEME
TIME_SYSTEM    = UTC
MEAN_ELEMENT_THEORY = SGP/SGP4

EPOCH          = 2026-01-13T14:36:00.991584
MEAN_MOTION    = 15.20153279
ECCENTRICITY   = .00154753
INCLINATION    = 97.4124
RA_OF_ASC_NODE = 90.8013
ARG_OF_PERICENTER = 181.8064
MEAN_ANOMALY   = 178.3118

EPHEMERIS_TYPE = 0
CLASSIFICATION_TYPE = U
NORAD_CAT_ID   = 67270
ELEMENT_SET_NO = 999
REV_AT_EPOCH   = 244
BSTAR          = .31855901E-3
MEAN_MOTION_DOT = .6846E-4
MEAN_MOTION_DDOT = 0

CCSDS_OMM_VERS = 2.0
CREATION_DATE  = 
ORIGINATOR     = 

OBJECT_NAME    = 2025-313Z
OBJECT_ID      = 2025-313Z
CENTER_NAME    = EARTH
REF_FRAME      = TEME
TIME_SYSTEM    = UTC
MEAN_ELEMENT_THEORY = SGP/SGP4

EPOCH          = 2026-01-13T13:02:03.639552
MEAN_MOTION    = 15.20003854
ECCENTRICITY   = .00154963
INCLINATION    = 97.4118
RA_OF_ASC_NODE = 90.7264
ARG_OF_PERICENTER = 177.9885
MEAN_ANOMALY   = 182.1415

EPHEMERIS_TYPE = 0
CLASSIFICATION_TYPE = U
NORAD_CAT_ID   = 67271
ELEMENT_SET_NO = 999
REV_AT_EPOCH   = 243
BSTAR          = .17592557E-3
MEAN_MOTION_DOT = .3732E-4
MEAN_MOTION_DDOT = 0

CCSDS_OMM_VERS = 2.0
CREATION_DATE  = 
ORIGINATOR     = 

OBJECT_NAME    = 2025-313AA
OBJECT_ID      = 2025-313AA
CENTER_NAME    = EARTH
REF_FRAME      = TEME
TIME_SYSTEM    = UTC
MEAN_ELEMENT_THEORY = SGP/SGP4

EPOCH          = 2026-01-13T11:24:27.058752
MEAN_MOTION    = 15.20333930
ECCENTRICITY   = .00152138
INCLINATION    = 97.4123
RA_OF_ASC_NODE = 90.6627
ARG_OF_PERICENTER = 182.6104
MEAN_ANOMALY   = 177.5055

EPHEMERIS_TYPE = 0
CLASSIFICATION_TYPE = U
NORAD_CAT_ID   = 67272
ELEMENT_SET_NO = 999
REV_AT_EPOCH   = 242
BSTAR          = .41451491E-3
MEAN_MOTION_DOT = .8977E-4
MEAN_MOTION_DDOT = 0

