2025-313P               
1 67261U 25313P   26013.47557795  .00013628  00000+0  62604-3 0  9997
2 67261  97.4156  90.6802 0015495 180.9187 179.2023 15.20395050  2421
2025-313Q               
1 67262U 25313Q   26013.47654142  .00009357  00000+0  43359-3 0  9992
2 67262  97.4123  90.6607 0015549 182.8898 177.2250 15.20195393  2427
2025-313R               
1 67263U 25313R   26013.47675541  .00007031  00000+0  32717-3 0  9992
2 67263  97.4135  90.6746 0015494 181.7792 178.3390 15.20144903  2423
2025-313S               
1 67264U 25313S   26013.54321185  .00004870  00000+0  22840-3 0  9997
2 67264  97.4204  90.7355 0015474 186.6851 173.4180 15.20029048  2432
SITRO-TD-4              
1 67265U 25313T   26013.47643210  .00007560  00000+0  35125-3 0  9995
2 67265  97.4115  90.6704 0015418 182.6396 177.4760 15.20172061  2420
SITRO-AIS-65            
1 67266U 25313U   26013.47638641  .00008279  00000+0  38422-3 0  9999
2 67266  97.4143  90.6755 0015341 181.3174 178.8024 15.20183104  2421
2025-313V               
1 67267U 25313V   26013.54184414  .00007658  00000+0  35518-3 0  9995
2 67267  97.4124  90.7285 0014552 186.7099 173.3944 15.20238370  2436
ZORKY-2M 7              
1 67268U 25313W   26013.54240392  .00005821  00000+0  27151-3 0  9998
2 67268  97.4124  90.7262 0015512 181.8439 178.2742 15.20136626  2434
2025-313X               
1 67269U 25313X   26013.47574051  .00008764  00000+0  40501-3 0  9996
2 67269  97.4151  90.6777 0015353 180.5467 179.5754 15.20309108  2428
SITRO-TD-3              
1 67270U 25313Y   26013.60834481  .00006846  00000+0  31856-3 0  9991
2 67270  97.4124  90.8013 0015475 181.8064 178.3118 15.20153279  2446
2025-313Z               
1 67271U 25313Z   26013.54309768  .00003732  00000+0  17593-3 0  9993
2 67271  97.4118  90.7264 0015496 177.9885 182.1415 15.20003854  2432
2025-313AA              
1 67272U 25313AA  26013.47531318  .00008977  00000+0  41451-3 0  9990
2 67272  97.4123  90.6627 0015213 182.6104 177.5055 15.20333930  2423
